SAR-LUPE 2              
1 31797U 07030A   26154.91055679  .00013191  00000+0  25472-3 0  9994
2 31797  98.1032 257.7224 0009892 156.5231 203.6471 15.47908319 54887
SAPPHIRE                
1 39088U 13009C   26154.56743528  .00000116  00000+0  55667-4 0  9999
2 39088  98.4257 334.3470 0010044 291.9205  68.0912 14.35236684694621
PRAETORIAN SDA_602      
1 65565U 25203A   26154.65299116  .00000077  00000+0  57845-4 0  9992
2 65565  81.3040  23.3067 0005129 223.7748 136.3003 13.84341859 36827
PRAETORIAN SDA_603      
1 65566U 25203B   26154.60310199  .00000153  00000+0  12699-3 0  9995
2 65566  81.3044  23.2597 0008765 226.3605 133.6825 13.83904266 36827
PRAETORIAN SDA_604      
1 65567U 25203C   26154.61440205  .00000141  00000+0  11819-3 0  9999
2 65567  81.3062  23.6409 0004673 232.7234 127.3496 13.83046010 36803
PRAETORIAN SDA_605      
1 65568U 25203D   26154.58352435  .00000102  00000+0  82193-4 0  9994
2 65568  81.3027  23.3456 0007429 222.3871 137.6712 13.83433210 36816
PRAETORIAN SDA_606      
1 65569U 25203E   26154.63813278  .00000112  00000+0  91382-4 0  9999
2 65569  81.3063  23.5111 0005062 220.6122 139.4657 13.83406265 36816
PRAETORIAN SDA_607      
1 65570U 25203F   26154.65474400  .00000143  00000+0  11710-3 0  9993
2 65570  81.3056  23.1812 0008006 227.8329 132.2148 13.84283643 36835
PRAETORIAN SDA_608      
1 65571U 25203G   26154.62757612  .00000103  00000+0  82335-4 0  9998
2 65571  81.3015  23.3614 0005172 231.8260 128.2431 13.83815602 36816
PRAETORIAN SDA_609      
1 65572U 25203H   26154.63677682  .00000191  00000+0  16089-3 0  9997
2 65572  81.3059  23.3404 0006044 225.2882 134.7783 13.84283284 36827
PRAETORIAN SDA_610      
1 65573U 25203J   26154.60767460  .00000070  00000+0  52134-4 0  9997
2 65573  81.3016  23.3383 0005842 228.6073 131.4582 13.83850902 36817
PRAETORIAN SDA_611      
1 65574U 25203K   26154.09682259  .00000185  00000+0  15775-3 0  9999
2 65574  81.3015  23.9655 0004759 238.4418 121.6274 13.83308211 36734
PRAETORIAN SDA_612      
1 65575U 25203L   26154.60969359  .00000199  00000+0  16507-3 0  9995
2 65575  81.3037  23.1105 0008492 225.7766 134.2695 13.85037472 36832
PRAETORIAN SDA_613      
1 65576U 25203M   26154.60453709  .00000077  00000+0  59967-4 0  9996
2 65576  81.3008  23.4820 0004921 223.9522 136.1243 13.82764095 36803
PRAETORIAN SDA_614      
1 65577U 25203N   26154.59631828  .00000110  00000+0  87187-4 0  9998
2 65577  81.3023  23.1975 0006366 223.2736 136.7922 13.84777436 36832
PRAETORIAN SDA_615      
1 65578U 25203P   26154.64211940  .00000216  00000+0  18224-3 0  9996
2 65578  81.3038  23.1124 0008311 224.7575 135.2912 13.84434821 36835
PRAETORIAN SDA_616      
1 65579U 25203Q   26154.60193918  .00000177  00000+0  15035-3 0  9990
2 65579  81.3072  23.6350 0004641 234.7896 125.2826 13.83266265 36803
PRAETORIAN SDA_617      
1 65580U 25203R   26154.62238800  .00000120  00000+0  99226-4 0  9997
2 65580  81.3046  23.4478 0006608 223.5883 136.4751 13.83149738 36819
PRAETORIAN SDA_618      
1 65581U 25203S   26154.61044867  .00000154  00000+0  12628-3 0  9992
2 65581  81.3029  23.0747 0008972 227.0045 133.0361 13.84668305 36830
PRAETORIAN SDA_619      
1 65582U 25203T   26154.63793445 -.00002102  00000+0 -19090-2 0  9994
2 65582  81.3054  23.3249 0007318 222.5116 137.5474 13.83821746 37453
PRAETORIAN SDA_620      
1 65583U 25203U   26154.59176969  .00000188  00000+0  15983-3 0  9994
2 65583  81.3037  23.3857 0006891 220.1741 139.8906 13.83617245 36814
PRAETORIAN SDA_621      
1 65584U 25203V   26154.63965942  .00000111  00000+0  89156-4 0  9997
2 65584  81.3029  23.2650 0006697 217.2787 142.7906 13.83800044 36822
PRAETORIAN SDA_601      
1 65585U 25203W   26154.60409120  .00000294  00000+0  25749-3 0  9995
2 65585  81.3043  23.5798 0004721 237.3484 122.7217 13.83165780 36800
